[ {
  "OBJECT_ID": "2014-037E",
  "OBJECT_NAME": "DUMMY SAT",
  "NORAD_CAT_ID": "40073",
  "OBJECT_TYPE": "PAYLOAD",
  "PERIOD": "97.265",
  "INCLINATION": "98.3314",
  "APOGEE": "631.034",
  "PERIGEE": "624.547",
  "ECCENTRICITY": "0.000463",
  "MEAN_MOTION": "14.80486396",
  "TLE_LINE1": "1 40073U 14037E   16239.55940204  .00000003  00000-0  78159-5 0  9997",
  "TLE_LINE2": "2 40073  98.3314 333.1087 0004630 285.3587  74.7112 14.80486396115356",
  "LAUNCH_DATE": "2014-07-08",
  "LAUNCH_SITE": "TYURATAM MISSILE AND SPACE COMPLEX",
  "OWNER": "COMMONWEALTH OF INDEPENDENT STATES",
  "ORBIT_TYPE": "Low Earth Orbit",
  "OPERATIONAL_STATUS": "Nonoperational"
}, {
  "OBJECT_ID": "2014-040D",
  "OBJECT_NAME": "ORBCOMM FM 111",
  "NORAD_CAT_ID": "40089",
  "OBJECT_TYPE": "PAYLOAD",
  "PERIOD": "97.513",
  "INCLINATION": "47.0061",
  "APOGEE": "664.156",
  "PERIGEE": "615.252",
  "ECCENTRICITY": "0.0034843",
  "MEAN_MOTION": "14.76718216",
  "TLE_LINE1": "1 40089U 14040D   16239.13872870 -.00000030  00000-0  24957-4 0  9992",
  "TLE_LINE2": "2 40089  47.0061 262.1872 0034843  88.6412 271.8472 14.76718216114156",
  "LAUNCH_DATE": "2014-07-14",
  "LAUNCH_SITE": "AIR FORCE EASTERN TEST RANGE",
  "OWNER": "ORBITAL TELECOMMUNICATIONS SATELLITE (GLOBALSTAR)",
  "ORBIT_TYPE": "Low Earth Orbit",
  "OPERATIONAL_STATUS": "Nonoperational"
}, {
  "OBJECT_ID": "2015-049L",
  "OBJECT_NAME": "XW-2E",
  "NORAD_CAT_ID": "40909",
  "OBJECT_TYPE": "PAYLOAD",
  "PERIOD": "95.060",
  "INCLINATION": "97.4542",
  "APOGEE": "532.257",
  "PERIGEE": "510.766",
  "ECCENTRICITY": "0.0015574",
  "MEAN_MOTION": "15.14824942",
  "TLE_LINE1": "1 40909U 15049L   16239.54550307  .00001520  00000-0  85141-4 0  9992",
  "TLE_LINE2": "2 40909  97.4542 245.4752 0015574 150.6764 209.5345 15.14824942 51672",
  "LAUNCH_DATE": "2015-09-19",
  "LAUNCH_SITE": "Taiyaun Space Center, China",
  "OWNER": "PEOPLES REPUBLIC OF CHINA",
  "ORBIT_TYPE": "Low Earth Orbit",
  "OPERATIONAL_STATUS": "Nonoperational"
}, {
  "OBJECT_ID": "2015-071B",
  "OBJECT_NAME": "COSMOS 2512",
  "NORAD_CAT_ID": "41099",
  "OBJECT_TYPE": "PAYLOAD",
  "PERIOD": "98.518",
  "INCLINATION": "98.1767",
  "APOGEE": "693.771",
  "PERIGEE": "681.924",
  "ECCENTRICITY": "0.0008383",
  "MEAN_MOTION": "14.61651552",
  "TLE_LINE1": "1 41099U 15071B   16239.53383652  .00000316  00000-0  73023-4 0  9992",
  "TLE_LINE2": "2 41099  98.1767 245.9869 0008383 134.6028 225.5858 14.61651552 38699",
  "LAUNCH_DATE": "2015-12-05",
  "LAUNCH_SITE": "PLESETSK MISSILE AND SPACE COMPLEX",
  "OWNER": "COMMONWEALTH OF INDEPENDENT STATES",
  "ORBIT_TYPE": "Low Earth Orbit",
  "OPERATIONAL_STATUS": "Nonoperational"
}, {
  "OBJECT_ID": "2016-012A",
  "OBJECT_NAME": "ASTRO H",
  "NORAD_CAT_ID": "41337",
  "OBJECT_TYPE": "PAYLOAD",
  "PERIOD": "96.120",
  "INCLINATION": "31.005",
  "APOGEE": "581.376",
  "PERIGEE": "564.065",
  "ECCENTRICITY": "0.0012453",
  "MEAN_MOTION": "14.98115598",
  "TLE_LINE1": "1 41337U 16012A   16238.91406310 +.00000391 +00000-0 +25258-4 0  9991",
  "TLE_LINE2": "2 41337 031.0050 189.6226 0012453 004.4161 355.6582 14.98115598028605",
  "LAUNCH_DATE": "2016-02-17",
  "LAUNCH_SITE": "TANEGASHIMA SPACE CENTER",
  "OWNER": "JAPAN",
  "ORBIT_TYPE": "Low Earth Orbit",
  "OPERATIONAL_STATUS": "Nonoperational"
}]